CTC1_L_00361016-03
1 10062U 23961UI  26075.70033565  .00000000  00000+0  00000-0 0  9998
2 10062 100.0000 180.0000 0000000   0.0000   0.0000 13.72670257    12
CTC1_L_00361016-04
1 10063U 23316XV  26075.70033565  .00000000  00000+0  00000-0 0  9993
2 10063 100.0000 180.0000 0000000   0.0000  90.0000 13.72670257    12
CTC1_L_00361017-01
1 10064U 26199OI  26075.70033565  .00000000  00000+0  00000-0 0  9996
2 10064 100.0000 192.0000 0000000   0.0000 192.0000 13.72670257    19
CTC1_L_00361017-02
1 10065U 26424NE  26075.70033565  .00000000  00000+0  00000-0 0  9998
2 10065 100.0000 192.0000 0000000   0.0000 282.0000 13.72670257    10
CTC1_L_00361017-03
1 10066U 26359NA  26075.70033565  .00000000  00000+0  00000-0 0  9996
2 10066 100.0000 192.0000 0000000   0.0000  12.0000 13.72670257    12
CTC1_L_00361017-04
1 10067U 24457YB  26075.70033565  .00000000  00000+0  00000-0 0  9994
2 10067 100.0000 192.0000 0000000   0.0000 102.0000 13.72670257    13
CTC1_L_00361018-01
1 10068U 25044ZB  26075.70033565  .00000000  00000+0  00000-0 0  9998
2 10068 100.0000 204.0000 0000000   0.0000 204.0000 13.72670257    11
CTC1_L_00361018-02
1 10069U 25931HK  26075.70033565  .00000000  00000+0  00000-0 0  9994
2 10069 100.0000 204.0000 0000000   0.0000 294.0000 13.72670257    11
CTC1_L_00361018-03
1 10070U 23095JG  26075.70033565  .00000000  00000+0  00000-0 0  9995
2 10070 100.0000 204.0000 0000000   0.0000  24.0000 13.72670257    14
CTC1_L_00361018-04
1 10071U 25240VR  26075.70033565  .00000000  00000+0  00000-0 0  9990
2 10071 100.0000 204.0000 0000000   0.0000 114.0000 13.72670257    15
CTC1_L_00361019-01
1 10072U 25950J   26075.70033565  .00000000  00000+0  00000-0 0  9999
2 10072 100.0000 216.0000 0000000   0.0000 216.0000 13.72670257    12
CTC1_L_00361019-02
1 10073U 25999TH  26075.70033565  .00000000  00000+0  00000-0 0  9993
2 10073 100.0000 216.0000 0000000   0.0000 306.0000 13.72670257    13
CTC1_L_00361019-03
1 10074U 22784SB  26075.70033565  .00000000  00000+0  00000-0 0  9993
2 10074 100.0000 216.0000 0000000   0.0000  36.0000 13.72670257    14
CTC1_L_00361019-04
1 10075U 24717UE  26075.70033565  .00000000  00000+0  00000-0 0  9992
2 10075 100.0000 216.0000 0000000   0.0000 126.0000 13.72670257    15
CTC1_L_00361020-01
1 10076U 26762UH  26075.70033565  .00000000  00000+0  00000-0 0  9995
2 10076 100.0000 228.0000 0000000   0.0000 228.0000 13.72670257    12
CTC1_L_00361020-02
1 10077U 25677MN  26075.70033565  .00000000  00000+0  00000-0 0  9990
2 10077 100.0000 228.0000 0000000   0.0000 318.0000 13.72670257    13
CTC1_L_00361020-03
1 10078U 26589CK  26075.70033565  .00000000  00000+0  00000-0 0  9994
2 10078 100.0000 228.0000 0000000   0.0000  48.0000 13.72670257    14
CTC1_L_00361020-04
1 10079U 23519KW  26075.70033565  .00000000  00000+0  00000-0 0  9995
2 10079 100.0000 228.0000 0000000   0.0000 138.0000 13.72670257    15
CTC1_L_00361021-01
1 10080U 23931GK  26075.70033565  .00000000  00000+0  00000-0 0  9995
2 10080 100.0000 240.0000 0000000   0.0000 240.0000 13.72670257    15
CTC1_L_00361021-02
1 10081U 25814CM  26075.70033565  .00000000  00000+0  00000-0 0  9998
2 10081 100.0000 240.0000 0000000   0.0000 330.0000 13.72670257    16
CTC1_L_00361021-03
1 10082U 24709KS  26075.70033565  .00000000  00000+0  00000-0 0  9991
2 10082 100.0000 240.0000 0000000   0.0000  60.0000 13.72670257    17
CTC1_L_00361021-04
1 10083U 23153LB  26075.70033565  .00000000  00000+0  00000-0 0  9994
2 10083 100.0000 240.0000 0000000   0.0000 150.0000 13.72670257    18
CTC1_L_00361022-01
1 10084U 24494EJ  26075.70033565  .00000000  00000+0  00000-0 0  9994
2 10084 100.0000 252.0000 0000000   0.0000 252.0000 13.72670257    15
CTC1_L_00361022-02
1 10085U 26148QL  26075.70033565  .00000000  00000+0  00000-0 0  9993
2 10085 100.0000 252.0000 0000000   0.0000 342.0000 13.72670257    16
CTC1_L_00361022-03
1 10086U 25424YV  26075.70033565  .00000000  00000+0  00000-0 0  9990
2 10086 100.0000 252.0000 0000000   0.0000  72.0000 13.72670257    17
CTC1_L_00361022-04
1 10087U 22741PZ  26075.70033565  .00000000  00000+0  00000-0 0  9990
2 10087 100.0000 252.0000 0000000   0.0000 162.0000 13.72670257    18
CTC1_L_00361023-01
1 10088U 26833GS  26075.70033565  .00000000  00000+0  00000-0 0  9997
2 10088 100.0000 264.0000 0000000   0.0000 264.0000 13.72670257    15
CTC1_L_00361023-02
1 10089U 23129QL  26075.70033565  .00000000  00000+0  00000-0 0  9993
2 10089 100.0000 264.0000 0000000   0.0000 354.0000 13.72670257    16
CTC1_L_00361023-03
1 10090U 24239PI  26075.70033565  .00000000  00000+0  00000-0 0  9998
2 10090 100.0000 264.0000 0000000   0.0000  84.0000 13.72670257    18
CTC1_L_00361023-04
1 10091U 23876RC  26075.70033565  .00000000  00000+0  00000-0 0  9995
2 10091 100.0000 264.0000 0000000   0.0000 174.0000 13.72670257    19
CTC1_L_00361024-01
1 10092U 25344F   26075.70033565  .00000000  00000+0  00000-0 0  9998
2 10092 100.0000 276.0000 0000000   0.0000 276.0000 13.72670257    16
CTC1_L_00361024-02
1 10093U 24140ZH  26075.70033565  .00000000  00000+0  00000-0 0  9992
2 10093 100.0000 276.0000 0000000   0.0000   6.0000 13.72670257    18
CTC1_L_00361024-03
1 10094U 24849AG  26075.70033565  .00000000  00000+0  00000-0 0  9999
2 10094 100.0000 276.0000 0000000   0.0000  96.0000 13.72670257    18
CTC1_L_00361024-04
1 10095U 24984NB  26075.70033565  .00000000  00000+0  00000-0 0  9990
2 10095 100.0000 276.0000 0000000   0.0000 186.0000 13.72670257    19
CTC1_L_00361025-01
1 10096U 23058LB  26075.70033565  .00000000  00000+0  00000-0 0  9992
2 10096 100.0000 288.0000 0000000   0.0000 288.0000 13.72670257    16
CTC1_L_00361025-02
1 10097U 25512N   26075.70033565  .00000000  00000+0  00000-0 0  9990
2 10097 100.0000 288.0000 0000000   0.0000  18.0000 13.72670257    18
CTC1_L_00361025-03
1 10098U 24614JT  26075.70033565  .00000000  00000+0  00000-0 0  9993
2 10098 100.0000 288.0000 0000000   0.0000 108.0000 13.72670257    19
CTC1_L_00361025-04
1 10099U 22273GS  26075.70033565  .00000000  00000+0  00000-0 0  9993
2 10099 100.0000 288.0000 0000000   0.0000 198.0000 13.72670257    19
CTC1_L_00361026-01
1 10100U 24911XZ  26075.70033565  .00000000  00000+0  00000-0 0  9997
2 10100 100.0000 300.0000 0000000   0.0000 300.0000 13.72670257    12
CTC1_L_00361026-02
1 10101U 26225WU  26075.70033565  .00000000  00000+0  00000-0 0  9998
2 10101 100.0000 300.0000 0000000   0.0000  30.0000 13.72670257    13
CTC1_L_00361026-03
1 10102U 23464NH  26075.70033565  .00000000  00000+0  00000-0 0  9991
2 10102 100.0000 300.0000 0000000   0.0000 120.0000 13.72670257    14
CTC1_L_00361026-04
1 10103U 23492JW  26075.70033565  .00000000  00000+0  00000-0 0  9993
2 10103 100.0000 300.0000 0000000   0.0000 210.0000 13.72670257    15
CTC1_L_00361027-01
1 10104U 22534NY  26075.70033565  .00000000  00000+0  00000-0 0  9990
2 10104 100.0000 312.0000 0000000   0.0000 312.0000 13.72670257    12
CTC1_L_00361027-02
1 10105U 22790S   26075.70033565  .00000000  00000+0  00000-0 0  9995
2 10105 100.0000 312.0000 0000000   0.0000  42.0000 13.72670257    13
CTC1_L_00361027-03
1 10106U 23947HF  26075.70033565  .00000000  00000+0  00000-0 0  9991
2 10106 100.0000 312.0000 0000000   0.0000 132.0000 13.72670257    14
CTC1_L_00361027-04
1 10107U 23524NJ  26075.70033565  .00000000  00000+0  00000-0 0  9993
2 10107 100.0000 312.0000 0000000   0.0000 222.0000 13.72670257    15
CTC1_L_00361028-01
1 10108U 25185JH  26075.70033565  .00000000  00000+0  00000-0 0  9999
2 10108 100.0000 324.0000 0000000   0.0000 324.0000 13.72670257    12
CTC1_L_00361028-02
1 10109U 26864QR  26075.70033565  .00000000  00000+0  00000-0 0  9995
2 10109 100.0000 324.0000 0000000   0.0000  54.0000 13.72670257    13
CTC1_L_00361028-03
1 10110U 26747MY  26075.70033565  .00000000  00000+0  00000-0 0  9997
2 10110 100.0000 324.0000 0000000   0.0000 144.0000 13.72670257    15
CTC1_L_00361028-04
1 10111U 23216HS  26075.70033565  .00000000  00000+0  00000-0 0  9996
2 10111 100.0000 324.0000 0000000   0.0000 234.0000 13.72670257    16
CTC1_L_00361029-01
1 10112U 23342HV  26075.70033565  .00000000  00000+0  00000-0 0  9997
2 10112 100.0000 336.0000 0000000   0.0000 336.0000 13.72670257    13
CTC1_L_00361029-02
1 10113U 24541NA  26075.70033565  .00000000  00000+0  00000-0 0  9990
2 10113 100.0000 336.0000 0000000   0.0000  66.0000 13.72670257    14
CTC1_L_00361029-03
1 10114U 26429EM  26075.70033565  .00000000  00000+0  00000-0 0  9998
2 10114 100.0000 336.0000 0000000   0.0000 156.0000 13.72670257    15
CTC1_L_00361029-04
1 10115U 24316JS  26075.70033565  .00000000  00000+0  00000-0 0  9992
2 10115 100.0000 336.0000 0000000   0.0000 246.0000 13.72670257    16
CTC1_L_00361030-01
1 10116U 26923EC  26075.70033565  .00000000  00000+0  00000-0 0  9999
2 10116 100.0000 348.0000 0000000   0.0000 348.0000 13.72670257    13
CTC1_L_00361030-02
1 10117U 26544BL  26075.70033565  .00000000  00000+0  00000-0 0  9999
2 10117 100.0000 348.0000 0000000   0.0000  78.0000 13.72670257    14
CTC1_L_00361030-03
1 10118U 23952OY  26075.70033565  .00000000  00000+0  00000-0 0  9990
2 10118 100.0000 348.0000 0000000   0.0000 168.0000 13.72670257    15
CTC1_L_00361030-04
1 10119U 23861CZ  26075.70033565  .00000000  00000+0  00000-0 0  9990
2 10119 100.0000 348.0000 0000000   0.0000 258.0000 13.72670257    16
